ORBCOMM FM20            
1 25416U 98046D   24344.44572483  .00002445  00000+0  87432-3 0  9990
2 25416  44.9951 359.3462 0002087 294.0009  66.0620 14.36423728377013
ORBCOMM FM16            
1 25417U 98046E   24343.88428685  .00003464  00000+0  11851-2 0  9995
2 25417  44.9947 355.8691 0003147  22.5992 337.4994 14.37815792376854
ORBCOMM FM15            
1 25418U 98046F   24343.74642376  .00003206  00000+0  11077-2 0  9990
2 25418  44.9979   1.1268 0002687  18.9497 341.1450 14.37494255376832
ORBCOMM FM14            
1 25419U 98046G   24343.46016717  .00003210  00000+0  11025-2 0  9992
2 25419  44.9966   1.2172 0002411 350.4685   9.6117 14.37777576376759
ORBCOMM FM13            
1 25420U 98046H   24344.04779339  .00002934  00000+0  10326-2 0  9990
2 25420  44.9984   4.7066 0004096  12.1327 347.9619 14.36761396377014
ORBCOMM FM21            
1 25475U 98053A   24344.43534554  .00002623  00000+0  93210-3 0  9998
2 25475  45.0080  87.5964 0001619 259.4118 100.6547 14.36559897370288
ORBCOMM FM22            
1 25476U 98053B   24343.83132932  .00003570  00000+0  12311-2 0  9990
2 25476  45.0071  86.6844 0002705 299.4620  60.5958 14.37362543369879
ORBCOMM FM23            
1 25477U 98053C   24344.03790784  .00003286  00000+0  11533-2 0  9998
2 25477  45.0075  91.8104 0002077 285.6821  74.3798 14.36658179370355
