<?xml version="1.0" encoding="UTF-8"?>
<ndm xmlns:xsi="http://www.w3.org/2001/XMLSchema-instance" xsi:noNamespaceSchemaLocation="https://sanaregistry.org/r/ndmxml_unqualified/ndmxml-2.0.0-master-2.0.xsd">
<omm id="CCSDS_OMM_VERS" version="2.0">
<header><CREATION_DATE/><ORIGINATOR/></header><body><segment><metadata><OBJECT_NAME>ORBCOMM FM20</OBJECT_NAME><OBJECT_ID>1998-046D</OBJECT_ID><CENTER_NAME>EARTH</CENTER_NAME><REF_FRAME>TEME</REF_FRAME><TIME_SYSTEM>UTC</TIME_SYSTEM><MEAN_ELEMENT_THEORY>SGP4</MEAN_ELEMENT_THEORY></metadata><data><meanElements><EPOCH>2024-12-09T10:41:50.625312</EPOCH><MEAN_MOTION>14.36423728</MEAN_MOTION><ECCENTRICITY>.0002087</ECCENTRICITY><INCLINATION>44.9951</INCLINATION><RA_OF_ASC_NODE>359.3462</RA_OF_ASC_NODE><ARG_OF_PERICENTER>294.0009</ARG_OF_PERICENTER><MEAN_ANOMALY>66.0620</MEAN_ANOMALY></meanElements><tleParameters><EPHEMERIS_TYPE>0</EPHEMERIS_TYPE><CLASSIFICATION_TYPE>U</CLASSIFICATION_TYPE><NORAD_CAT_ID>25416</NORAD_CAT_ID><ELEMENT_SET_NO>999</ELEMENT_SET_NO><REV_AT_EPOCH>37701</REV_AT_EPOCH><BSTAR>.87432E-3</BSTAR><MEAN_MOTION_DOT>.2445E-4</MEAN_MOTION_DOT><MEAN_MOTION_DDOT>0</MEAN_MOTION_DDOT></tleParameters></data></segment></body></omm>
<omm id="CCSDS_OMM_VERS" version="2.0">
<header><CREATION_DATE/><ORIGINATOR/></header><body><segment><metadata><OBJECT_NAME>ORBCOMM FM16</OBJECT_NAME><OBJECT_ID>1998-046E</OBJECT_ID><CENTER_NAME>EARTH</CENTER_NAME><REF_FRAME>TEME</REF_FRAME><TIME_SYSTEM>UTC</TIME_SYSTEM><MEAN_ELEMENT_THEORY>SGP4</MEAN_ELEMENT_THEORY></metadata><data><meanElements><EPOCH>2024-12-08T21:13:22.383840</EPOCH><MEAN_MOTION>14.37815792</MEAN_MOTION><ECCENTRICITY>.0003147</ECCENTRICITY><INCLINATION>44.9947</INCLINATION><RA_OF_ASC_NODE>355.8691</RA_OF_ASC_NODE><ARG_OF_PERICENTER>22.5992</ARG_OF_PERICENTER><MEAN_ANOMALY>337.4994</MEAN_ANOMALY></meanElements><tleParameters><EPHEMERIS_TYPE>0</EPHEMERIS_TYPE><CLASSIFICATION_TYPE>U</CLASSIFICATION_TYPE><NORAD_CAT_ID>25417</NORAD_CAT_ID><ELEMENT_SET_NO>999</ELEMENT_SET_NO><REV_AT_EPOCH>37685</REV_AT_EPOCH><BSTAR>.11851E-2</BSTAR><MEAN_MOTION_DOT>.3464E-4</MEAN_MOTION_DOT><MEAN_MOTION_DDOT>0</MEAN_MOTION_DDOT></tleParameters></data></segment></body></omm>
<omm id="CCSDS_OMM_VERS" version="2.0">
<header><CREATION_DATE/><ORIGINATOR/></header><body><segment><metadata><OBJECT_NAME>ORBCOMM FM15</OBJECT_NAME><OBJECT_ID>1998-046F</OBJECT_ID><CENTER_NAME>EARTH</CENTER_NAME><REF_FRAME>TEME</REF_FRAME><TIME_SYSTEM>UTC</TIME_SYSTEM><MEAN_ELEMENT_THEORY>SGP4</MEAN_ELEMENT_THEORY></metadata><data><meanElements><EPOCH>2024-12-08T17:54:51.012864</EPOCH><MEAN_MOTION>14.37494255</MEAN_MOTION><ECCENTRICITY>.0002687</ECCENTRICITY><INCLINATION>44.9979</INCLINATION><RA_OF_ASC_NODE>1.1268</RA_OF_ASC_NODE><ARG_OF_PERICENTER>18.9497</ARG_OF_PERICENTER><MEAN_ANOMALY>341.1450</MEAN_ANOMALY></meanElements><tleParameters><EPHEMERIS_TYPE>0</EPHEMERIS_TYPE><CLASSIFICATION_TYPE>U</CLASSIFICATION_TYPE><NORAD_CAT_ID>25418</NORAD_CAT_ID><ELEMENT_SET_NO>999</ELEMENT_SET_NO><REV_AT_EPOCH>37683</REV_AT_EPOCH><BSTAR>.11077E-2</BSTAR><MEAN_MOTION_DOT>.3206E-4</MEAN_MOTION_DOT><MEAN_MOTION_DDOT>0</MEAN_MOTION_DDOT></tleParameters></data></segment></body></omm>
<omm id="CCSDS_OMM_VERS" version="2.0">
<header><CREATION_DATE/><ORIGINATOR/></header><body><segment><metadata><OBJECT_NAME>ORBCOMM FM14</OBJECT_NAME><OBJECT_ID>1998-046G</OBJECT_ID><CENTER_NAME>EARTH</CENTER_NAME><REF_FRAME>TEME</REF_FRAME><TIME_SYSTEM>UTC</TIME_SYSTEM><MEAN_ELEMENT_THEORY>SGP4</MEAN_ELEMENT_THEORY></metadata><data><meanElements><EPOCH>2024-12-08T11:02:38.443488</EPOCH><MEAN_MOTION>14.37777576</MEAN_MOTION><ECCENTRICITY>.0002411</ECCENTRICITY><INCLINATION>44.9966</INCLINATION><RA_OF_ASC_NODE>1.2172</RA_OF_ASC_NODE><ARG_OF_PERICENTER>350.4685</ARG_OF_PERICENTER><MEAN_ANOMALY>9.6117</MEAN_ANOMALY></meanElements><tleParameters><EPHEMERIS_TYPE>0</EPHEMERIS_TYPE><CLASSIFICATION_TYPE>U</CLASSIFICATION_TYPE><NORAD_CAT_ID>25419</NORAD_CAT_ID><ELEMENT_SET_NO>999</ELEMENT_SET_NO><REV_AT_EPOCH>37675</REV_AT_EPOCH><BSTAR>.11025E-2</BSTAR><MEAN_MOTION_DOT>.321E-4</MEAN_MOTION_DOT><MEAN_MOTION_DDOT>0</MEAN_MOTION_DDOT></tleParameters></data></segment></body></omm>
<omm id="CCSDS_OMM_VERS" version="2.0">
<header><CREATION_DATE/><ORIGINATOR/></header><body><segment><metadata><OBJECT_NAME>ORBCOMM FM13</OBJECT_NAME><OBJECT_ID>1998-046H</OBJECT_ID><CENTER_NAME>EARTH</CENTER_NAME><REF_FRAME>TEME</REF_FRAME><TIME_SYSTEM>UTC</TIME_SYSTEM><MEAN_ELEMENT_THEORY>SGP4</MEAN_ELEMENT_THEORY></metadata><data><meanElements><EPOCH>2024-12-09T01:08:49.348896</EPOCH><MEAN_MOTION>14.36761396</MEAN_MOTION><ECCENTRICITY>.0004096</ECCENTRICITY><INCLINATION>44.9984</INCLINATION><RA_OF_ASC_NODE>4.7066</RA_OF_ASC_NODE><ARG_OF_PERICENTER>12.1327</ARG_OF_PERICENTER><MEAN_ANOMALY>347.9619</MEAN_ANOMALY></meanElements><tleParameters><EPHEMERIS_TYPE>0</EPHEMERIS_TYPE><CLASSIFICATION_TYPE>U</CLASSIFICATION_TYPE><NORAD_CAT_ID>25420</NORAD_CAT_ID><ELEMENT_SET_NO>999</ELEMENT_SET_NO><REV_AT_EPOCH>37701</REV_AT_EPOCH><BSTAR>.10326E-2</BSTAR><MEAN_MOTION_DOT>.2934E-4</MEAN_MOTION_DOT><MEAN_MOTION_DDOT>0</MEAN_MOTION_DDOT></tleParameters></data></segment></body></omm>
<omm id="CCSDS_OMM_VERS" version="2.0">
<header><CREATION_DATE/><ORIGINATOR/></header><body><segment><metadata><OBJECT_NAME>ORBCOMM FM21</OBJECT_NAME><OBJECT_ID>1998-053A</OBJECT_ID><CENTER_NAME>EARTH</CENTER_NAME><REF_FRAME>TEME</REF_FRAME><TIME_SYSTEM>UTC</TIME_SYSTEM><MEAN_ELEMENT_THEORY>SGP4</MEAN_ELEMENT_THEORY></metadata><data><meanElements><EPOCH>2024-12-09T10:26:53.854656</EPOCH><MEAN_MOTION>14.36559897</MEAN_MOTION><ECCENTRICITY>.0001619</ECCENTRICITY><INCLINATION>45.0080</INCLINATION><RA_OF_ASC_NODE>87.5964</RA_OF_ASC_NODE><ARG_OF_PERICENTER>259.4118</ARG_OF_PERICENTER><MEAN_ANOMALY>100.6547</MEAN_ANOMALY></meanElements><tleParameters><EPHEMERIS_TYPE>0</EPHEMERIS_TYPE><CLASSIFICATION_TYPE>U</CLASSIFICATION_TYPE><NORAD_CAT_ID>25475</NORAD_CAT_ID><ELEMENT_SET_NO>999</ELEMENT_SET_NO><REV_AT_EPOCH>37028</REV_AT_EPOCH><BSTAR>.9321E-3</BSTAR><MEAN_MOTION_DOT>.2623E-4</MEAN_MOTION_DOT><MEAN_MOTION_DDOT>0</MEAN_MOTION_DDOT></tleParameters></data></segment></body></omm>
<omm id="CCSDS_OMM_VERS" version="2.0">
<header><CREATION_DATE/><ORIGINATOR/></header><body><segment><metadata><OBJECT_NAME>ORBCOMM FM22</OBJECT_NAME><OBJECT_ID>1998-053B</OBJECT_ID><CENTER_NAME>EARTH</CENTER_NAME><REF_FRAME>TEME</REF_FRAME><TIME_SYSTEM>UTC</TIME_SYSTEM><MEAN_ELEMENT_THEORY>SGP4</MEAN_ELEMENT_THEORY></metadata><data><meanElements><EPOCH>2024-12-08T19:57:06.853248</EPOCH><MEAN_MOTION>14.37362543</MEAN_MOTION><ECCENTRICITY>.0002705</ECCENTRICITY><INCLINATION>45.0071</INCLINATION><RA_OF_ASC_NODE>86.6844</RA_OF_ASC_NODE><ARG_OF_PERICENTER>299.4620</ARG_OF_PERICENTER><MEAN_ANOMALY>60.5958</MEAN_ANOMALY></meanElements><tleParameters><EPHEMERIS_TYPE>0</EPHEMERIS_TYPE><CLASSIFICATION_TYPE>U</CLASSIFICATION_TYPE><NORAD_CAT_ID>25476</NORAD_CAT_ID><ELEMENT_SET_NO>999</ELEMENT_SET_NO><REV_AT_EPOCH>36987</REV_AT_EPOCH><BSTAR>.12311E-2</BSTAR><MEAN_MOTION_DOT>.357E-4</MEAN_MOTION_DOT><MEAN_MOTION_DDOT>0</MEAN_MOTION_DDOT></tleParameters></data></segment></body></omm>
<omm id="CCSDS_OMM_VERS" version="2.0">
<header><CREATION_DATE/><ORIGINATOR/></header><body><segment><metadata><OBJECT_NAME>ORBCOMM FM23</OBJECT_NAME><OBJECT_ID>1998-053C</OBJECT_ID><CENTER_NAME>EARTH</CENTER_NAME><REF_FRAME>TEME</REF_FRAME><TIME_SYSTEM>UTC</TIME_SYSTEM><MEAN_ELEMENT_THEORY>SGP4</MEAN_ELEMENT_THEORY></metadata><data><meanElements><EPOCH>2024-12-09T00:54:35.237376</EPOCH><MEAN_MOTION>14.36658179</MEAN_MOTION><ECCENTRICITY>.0002077</ECCENTRICITY><INCLINATION>45.0075</INCLINATION><RA_OF_ASC_NODE>91.8104</RA_OF_ASC_NODE><ARG_OF_PERICENTER>285.6821</ARG_OF_PERICENTER><MEAN_ANOMALY>74.3798</MEAN_ANOMALY></meanElements><tleParameters><EPHEMERIS_TYPE>0</EPHEMERIS_TYPE><CLASSIFICATION_TYPE>U</CLASSIFICATION_TYPE><NORAD_CAT_ID>25477</NORAD_CAT_ID><ELEMENT_SET_NO>999</ELEMENT_SET_NO><REV_AT_EPOCH>37035</REV_AT_EPOCH><BSTAR>.11533E-2</BSTAR><MEAN_MOTION_DOT>.3286E-4</MEAN_MOTION_DOT><MEAN_MOTION_DDOT>0</MEAN_MOTION_DDOT></tleParameters></data></segment></body></omm>

</ndm>
